[adrastea]
absolute_magnitude=12.4
albedo=0.1
color=1., 0.9, 0.75
coord_func=ell_orbit
halo=true
lighting=true
name=Adrastea
orbit_AscendingNode=253.6924110934923
orbit_Eccentricity=0.006543120249224196
orbit_Epoch=2454619.50000
orbit_Inclination=0.06166936906340893
orbit_LongOfPericenter=249.4662007624690000
orbit_MeanLongitude=252.4809048448870000
orbit_Period=0.3023760117035458
orbit_SemiMajorAxis=129866.6459712491
orbit_visualization_period=0.3023760117035458
parent=Jupiter
radius=10
rot_equator_ascending_node=213.7
rot_obliquity=15.5
rot_periode=7.2570242808850992
rot_rotation_offset=309.52
rot_pole_ra=268.05
rot_pole_ra1=-0.009
rot_pole_de=64.49
rot_pole_de1=0.003
rot_pole_w0=33.29
rot_pole_w1=1206.9986602
tex_map=lune.png
type=moon

[amalthea]
absolute_magnitude=7.4
albedo=0.09
color=1., 0.627, 0.492
coord_func=ell_orbit
halo=true
lighting=true
name=Amalthea
model=j5amalthea_MLfix.obj
orbit_AscendingNode=141.5521520794674
orbit_Eccentricity=0.006175744402949701
orbit_Epoch=2454619.50000
orbit_Inclination=0.3864576103404582
orbit_LongOfPericenter=245.4222355150120000
orbit_MeanLongitude=224.7924893552550000
orbit_Period=0.5016370462116355
orbit_SemiMajorAxis=181994.8658358799
orbit_visualization_period=0.5016370462116355
parent=Jupiter
radius=73
rot_equator_ascending_node=213.7
rot_obliquity=15.5
rot_periode=12.039289109079252
rot_rotation_offset=235.50
rot_pole_ra=268.05
rot_pole_ra1=-0.009
rot_pole_de=64.49
rot_pole_de1=0.003
rot_pole_w0=231.67
rot_pole_w1=722.6314560
tex_map=amalthea.png
type=moon

[ananke]
absolute_magnitude=12.2
albedo=0.04
color=1., 0.9, 0.75
coord_func=ell_orbit
halo=true
lighting=true
name=Ananke
orbit_AscendingNode=44.39093600694746
orbit_Eccentricity=0.2167681894364261
orbit_Epoch=2454619.50000
orbit_Inclination=148.5711484137670
orbit_LongOfPericenter=140.3109688567360000
orbit_MeanLongitude=14.7478795145449000
orbit_Period=648.6406641467003
orbit_SemiMajorAxis=21600750.92227203
orbit_visualization_period=648.6406641467003
parent=Jupiter
radius=15
rot_equator_ascending_node=213.7
rot_obliquity=15.5
rot_periode=648.6406641467003
rot_rotation_offset=14.9
tex_map=lune.png
type=moon

[ariel]
absolute_magnitude=1.45
albedo=0.39
color=1., 0.849, 0.731
coord_func=ariel_special
halo=true
lighting=true
name=Ariel
orbit_visualization_period=2.520
parent=Uranus
radius=578.9
rot_obliquity=0.0
rot_periode=-60.4890929200618
rot_rotation_offset=162.08
rot_pole_ra=257.43
rot_pole_de=-15.10
rot_pole_w0=156.22
rot_pole_w1=-142.8356681
tex_map=ariel.png
type=moon

[c2011kp36%28spacewatch%29]
absolute_magnitude=4.5
albedo=0.1
color=1.0, 1.0, 1.0
coord_func=comet_orbit
dust_brightnessfactor=1.5
dust_lengthfactor=0.40000000000000002
dust_widthfactor=1.5
lighting=false
name=C/2011 KP36 (Spacewatch)
orbit_ArgOfPericenter=180.58250000000001
orbit_AscendingNode=173.3999
orbit_Eccentricity=0.87291200000000002
orbit_Inclination=18.9863
orbit_PericenterDistance=4.8831749999999996
orbit_TimeAtPericenter=2457535.2741898149
orbit_good=1000
orbit_visualization_period=86975.45896626302
parent=Sun
radius=5
slope_parameter=4
tex_map=nomap.png
type=comet

[c2012f3%28panstarrs%29]
absolute_magnitude=6.5
albedo=0.1
color=1.0, 1.0, 1.0
coord_func=comet_orbit
dust_brightnessfactor=1.5
dust_lengthfactor=0.40000000000000002
dust_widthfactor=1.5
lighting=false
name=C/2012 F3 (PANSTARRS)
orbit_ArgOfPericenter=104.0286
orbit_AscendingNode=164.61150000000001
orbit_Eccentricity=1.0027159999999999
orbit_Inclination=11.3545
orbit_PericenterDistance=3.456833
orbit_TimeAtPericenter=2457119.2994907405
orbit_good=1000
parent=Sun
radius=5
slope_parameter=4
tex_map=nomap.png
type=comet

[c2012k1%28panstarrs%29]
absolute_magnitude=5.6
albedo=0.1
color=1.0, 1.0, 1.0
coord_func=comet_orbit
dust_brightnessfactor=1.5
dust_lengthfactor=0.40000000000000002
dust_widthfactor=1.5
lighting=false
name=C/2012 K1 (PANSTARRS)
orbit_ArgOfPericenter=203.1293
orbit_AscendingNode=317.75409999999999
orbit_Eccentricity=1.000472
orbit_Inclination=142.40559999999999
orbit_PericenterDistance=1.054289
orbit_TimeAtPericenter=2456897.3320949073
orbit_good=1000
parent=Sun
radius=5
slope_parameter=3.2
tex_map=nomap.png
type=comet

[c2012x1%28linear%29]
absolute_magnitude=4.8
albedo=0.1
color=1.0, 1.0, 1.0
coord_func=comet_orbit
dust_brightnessfactor=1.5
dust_lengthfactor=0.40000000000000002
dust_widthfactor=1.5
lighting=false
name=C/2012 X1 (LINEAR)
orbit_ArgOfPericenter=132.11580000000001
orbit_AscendingNode=113.0822
orbit_Eccentricity=0.98999700000000002
orbit_Inclination=44.356699999999996
orbit_PericenterDistance=1.5968519999999999
orbit_TimeAtPericenter=2456710.3666898147
orbit_good=368
orbit_visualization_period=726841.5049832416
parent=Sun
radius=5
slope_parameter=3.6
tex_map=nomap.png
type=comet

[c2013a1%28sidingspring%29]
absolute_magnitude=8.2
albedo=0.1
color=1.0, 1.0, 1.0
coord_func=comet_orbit
dust_brightnessfactor=1.5
dust_lengthfactor=0.40000000000000002
dust_widthfactor=1.5
lighting=false
name=C/2013 A1 (Siding Spring)
orbit_ArgOfPericenter=2.4506999999999999
orbit_AscendingNode=301.0129
orbit_Eccentricity=0.99979499999999999
orbit_Inclination=129.0249
orbit_PericenterDistance=1.4002380000000001
orbit_TimeAtPericenter=2456955.451388889
orbit_good=302
parent=Sun
radius=5
slope_parameter=2.4
tex_map=nomap.png
type=comet

[c2013us10%28catalina%29]
absolute_magnitude=4.4
albedo=0.1
color=1.0, 1.0, 1.0
coord_func=comet_orbit
dust_brightnessfactor=1.5
dust_lengthfactor=0.40000000000000002
dust_widthfactor=1.5
lighting=false
name=C/2013 US10 (Catalina)
orbit_ArgOfPericenter=340.36989999999997
orbit_AscendingNode=186.14760000000001
orbit_Eccentricity=1.0002610000000001
orbit_Inclination=148.8784
orbit_PericenterDistance=0.82328500000000004
orbit_TimeAtPericenter=2457342.2044907408
orbit_good=1000
parent=Sun
radius=5
slope_parameter=4
tex_map=nomap.png
type=comet

[c2013v5%28oukaimeden%29]
absolute_magnitude=9
albedo=0.1
color=1.0, 1.0, 1.0
coord_func=comet_orbit
dust_brightnessfactor=1.5
dust_lengthfactor=0.40000000000000002
dust_widthfactor=1.5
lighting=false
name=C/2013 V5 (Oukaimeden)
orbit_ArgOfPericenter=314.8612
orbit_AscendingNode=278.9083
orbit_Eccentricity=0.99822900000000003
orbit_Inclination=154.86619999999999
orbit_PericenterDistance=0.62732200000000005
orbit_TimeAtPericenter=2456928.1301967595
orbit_good=90
parent=Sun
radius=5
slope_parameter=4
tex_map=nomap.png
type=comet

[c2014q2%28lovejoy%29]
absolute_magnitude=4
albedo=0.1
color=1.0, 1.0, 1.0
coord_func=comet_orbit
dust_brightnessfactor=1.5
dust_lengthfactor=0.40000000000000002
dust_widthfactor=1.5
lighting=false
name=C/2014 Q2 (Lovejoy)
orbit_ArgOfPericenter=12.405099999999999
orbit_AscendingNode=94.995800000000003
orbit_Eccentricity=0.99763500000000005
orbit_Inclination=80.281700000000001
orbit_PericenterDistance=1.2910729999999999
orbit_TimeAtPericenter=2457052.486099537
orbit_good=267
parent=Sun
radius=5
slope_parameter=8.4
tex_map=nomap.png
type=comet

[c2014q3%28borisov%29]
absolute_magnitude=-0.5
albedo=0.1
color=1.0, 1.0, 1.0
coord_func=comet_orbit
dust_brightnessfactor=1.5
dust_lengthfactor=0.40000000000000002
dust_widthfactor=1.5
lighting=false
name=C/2014 Q3 (Borisov)
orbit_ArgOfPericenter=47.387900000000002
orbit_AscendingNode=63.138599999999997
orbit_Eccentricity=0.94181300000000001
orbit_Inclination=89.921300000000002
orbit_PericenterDistance=1.6480360000000001
orbit_TimeAtPericenter=2456980.4456944442
orbit_good=386
parent=Sun
radius=5
slope_parameter=20
tex_map=nomap.png
type=comet

[c2014r1%28borisov%29]
absolute_magnitude=6.5
albedo=0.1
color=1.0, 1.0, 1.0
coord_func=comet_orbit
dust_brightnessfactor=1.5
dust_lengthfactor=0.40000000000000002
dust_widthfactor=1.5
lighting=false
name=C/2014 R1 (Borisov)
orbit_ArgOfPericenter=55.695599999999999
orbit_AscendingNode=104.0518
orbit_Eccentricity=0.99263999999999997
orbit_Inclination=9.9276999999999997
orbit_PericenterDistance=1.3469640000000001
orbit_TimeAtPericenter=2456980.7153935186
orbit_good=285
parent=Sun
radius=5
slope_parameter=8.8
tex_map=nomap.png
type=comet

[c2014w2%28panstarrs%29]
absolute_magnitude=7.5
albedo=0.1
color=1.0, 1.0, 1.0
coord_func=comet_orbit
dust_brightnessfactor=1.5
dust_lengthfactor=0.40000000000000002
dust_widthfactor=1.5
lighting=false
name=C/2014 W2 (PANSTARRS)
orbit_ArgOfPericenter=85.020700000000005
orbit_AscendingNode=69.9619
orbit_Eccentricity=0.99820600000000004
orbit_Inclination=82.000299999999996
orbit_PericenterDistance=2.6704140000000001
orbit_TimeAtPericenter=2457458.0051967595
orbit_good=796
parent=Sun
radius=5
slope_parameter=4
tex_map=nomap.png
type=comet

